PROBA-1                 
1 26958U 01049B   23347.45531271  .00002406  00000+0  19250-3 0  9992
2 26958  97.8968 315.8405 0064656 327.7421  31.9853 14.99582454205892
CUTE-1 (CO-55)          
1 27844U 03031E   23347.49430443  .00000305  00000+0  15495-3 0  9996
2 27844  98.6785 352.1597 0009211 332.0773  27.9910 14.22995979 61260
CUBESAT XI-IV (CO-57)   
1 27848U 03031J   23347.00608320  .00000324  00000+0  16500-3 0  9997
2 27848  98.6814 352.0206 0009541 350.0375  10.0613 14.22476505 60976
GENESIS 1               
1 29252U 06029A   23347.49352552  .00008639  00000+0  29005-3 0  9995
2 29252  64.5193  72.6187 0003589 270.5974  89.4745 15.31451161962002
GENESIS 2               
1 31789U 07028A   23347.48331613  .00010239  00000+0  34748-3 0  9996
2 31789  64.4922 117.4781 0044281 237.8780 121.8048 15.30039856908854
APRIZESAT 4             
1 35684U 09041D   23346.68362540  .00000639  00000+0  88770-4 0  9993
2 35684  98.2643  23.0872 0046749  48.1158 312.4027 14.80824544775423
APRIZESAT 3             
1 35686U 09041F   23346.87965501  .00001718  00000+0  17651-3 0  9990
2 35686  98.1068  90.9950 0068676 206.8643 152.9011 14.90080972779468
PROBA-2                 
1 36037U 09059B   23347.48979028  .00000276  00000+0  76622-4 0  9999
2 36037  98.2245 169.1394 0012471 227.8919 132.1218 14.53713787748370
APRIZESAT 5             
1 37792U 11044E   23347.27747139  .00000782  00000+0  11564-3 0  9993
2 37792  98.2578 241.8114 0057571  68.4360 292.2971 14.77103293663376
APRIZESAT 6             
1 37793U 11044F   23346.59060022  .00000617  00000+0  10097-3 0  9994
2 37793  98.3263 220.1673 0046583 132.0678 288.4092 14.73873109661982
PROBA-V                 
1 39159U 13021A   23347.49041324  .00000068  00000+0  48153-4 0  9998
2 39159  98.3114 359.3923 0003164 309.3144  50.7755 14.23186722550709
APRIZESAT 7             
1 39416U 13066A   23346.89180298  .00001410  00000+0  16374-3 0  9991
2 39416  97.6456 307.7960 0039722   9.0879 351.1047 14.86375811544705
APRIZESAT 8             
1 39425U 13066K   23346.85532148  .00001101  00000+0  13789-3 0  9996
2 39425  97.7048 300.5693 0051357  60.9823 299.6524 14.83274064543463
BUGSAT-1 (TITA)         
1 40014U 14033E   23346.88708063  .00003509  00000+0  27266-3 0  9990
2 40014  98.1520  14.1576 0036803  40.1919 320.2015 15.01498891517512
SAUDISAT 4              
1 40016U 14033G   23347.47020000  .00000716  00000+0  10770-3 0  9995
2 40016  97.6473 157.7910 0047400 173.7624 186.4187 14.76602995510666
APRIZESAT 9             
1 40018U 14033J   23347.41195373  .00000675  00000+0  11323-3 0  9996
2 40018  97.7752 136.0295 0068313 266.8461  92.4929 14.71348838508737
APRIZESAT 10            
1 40019U 14033K   23347.38287914  .00000461  00000+0  84514-4 0  9992
2 40019  97.8403 127.1669 0081466 321.5647  37.9772 14.68314943507765
TDS 1                   
1 40076U 14037H   23346.74853485  .00004019  00000+0  41345-3 0  9997
2 40076  98.3325 253.4110 0007404 102.5537 257.6508 14.90911377510486
TIANTUO 2               
1 40144U 14053B   23347.42975820  .00012469  00000+0  21507-3 0  9991
2 40144  97.1453  63.9309 0008628  25.9187 334.2496 15.51123215518977
TECHNOSAT               
1 42829U 17042E   23347.46299928  .00002114  00000+0  19865-3 0  9996
2 42829  97.3791 174.2688 0012775 349.3666  10.7283 14.94856404349268
FLYING LAPTOP           
1 42831U 17042G   23346.84771532  .00001545  00000+0  14998-3 0  9995
2 42831  97.3809 173.8467 0013060 352.9219   7.1816 14.93916065349152
HAWK-A                  
1 43765U 18099H   23346.68923623  .00002358  00000+0  18945-3 0  9996
2 43765  97.5399  44.9083 0007446 205.5957 154.4899 15.00949568274506
HAWK-B                  
1 43794U 18099AN  23347.15627908  .00002813  00000+0  22515-3 0  9992
2 43794  97.5397  45.3588 0007195 205.0688 155.0187 15.00952611274564
HAWK-C                  
1 43799U 18099AT  23346.68942257  .00002382  00000+0  19138-3 0  9999
2 43799  97.5397  44.8006 0007000 206.4298 153.6570 15.00949624275241
SALSAT                  
1 46495U 20068K   23346.85744219  .00003673  00000+0  22971-3 0  9994
2 46495  97.7935 297.2244 0013050 228.0978 131.9138 15.10015111176012
HAWK-2C                 
1 47502U 21006CT  23346.73088313  .00004185  00000+0  19046-3 0  9998
2 47502  97.3621  36.5661 0008181 188.1393 171.9711 15.21218987159541
HAWK-2A                 
1 47505U 21006CW  23346.13903456  .00003467  00000+0  15836-3 0  9994
2 47505  97.3620  36.0977 0007936 189.7542 170.3541 15.21211802159451
HAWK-2B                 
1 47508U 21006CZ  23346.66542658  .00004199  00000+0  19108-3 0  9997
2 47508  97.3620  36.5007 0008216 188.8894 171.2197 15.21218448159534
HAWK-3B                 
1 48931U 21059BE  23347.38182793  .00005741  00000+0  23962-3 0  9993
2 48931  97.6062 123.1185 0013439  21.5540 338.6260 15.23985536136549
HAWK-3C                 
1 48948U 21059BX  23346.92185290  .00006763  00000+0  28166-3 0  9991
2 48948  97.6324 125.5709 0014481  26.3117 333.8852 15.23979921136474
HAWK-3A                 
1 48957U 21059CG  23346.92177795  .00006932  00000+0  28857-3 0  9997
2 48957  97.6191 124.1177 0014512  20.2440 339.9369 15.23981864136476
HAWK-4B                 
1 52165U 22033J   23347.19075848  .00007994  00000+0  25675-3 0  9996
2 52165  97.3448  65.8284 0007119 253.9586 106.0872 15.32532883 94619
HAWK-4A                 
1 52167U 22033L   23347.19054514  .00007976  00000+0  25619-3 0  9993
2 52167  97.3397  65.4531 0006563 253.2616 106.7906 15.32533704 94612
HAWK-4C                 
1 52170U 22033P   23347.19042266  .00007897  00000+0  25357-3 0  9999
2 52170  97.3445  65.8104 0008506 238.7610 121.2800 15.32534812 94617
HAWK-5C                 
1 52754U 22057Y   23347.34342351  .00004920  00000+0  23412-3 0  9992
2 52754  97.5711 103.4205 0009813  83.5589 276.6763 15.19601076 85803
HAWK-5B                 
1 52756U 22057AA  23346.94817973  .00006670  00000+0  31610-3 0  9999
2 52756  97.5549 101.8270 0010464  80.4797 279.7619 15.19599886 85741
HAWK-5A                 
1 52757U 22057AB  23346.94795277  .00005852  00000+0  27776-3 0  9991
2 52757  97.5629 102.4217 0010841  82.9901 277.2566 15.19598214 85740
HAWK-6B                 
1 55324U 23011A   23347.11938147  .00003096  00000+0  20227-3 0  9992
2 55324  40.5176 245.0561 0006699 289.7201  70.2880 15.09080594 48611
HAWK-6C                 
1 55326U 23011C   23347.11903507  .00003069  00000+0  20059-3 0  9999
2 55326  40.4862 244.1266 0006893 284.5307  75.4732 15.09079541 48626
HAWK-6A                 
1 55327U 23011D   23347.11893185  .00003163  00000+0  20641-3 0  9992
2 55327  40.5021 244.6143 0006978 280.8894  79.1125 15.09078134 48622
HAWK-7A                 
1 56191U 23054P   23347.23957073  .00003543  00000+0  18780-3 0  9992
2 56191  97.3910 238.7400 0010883  72.7702 287.4721 15.15971871 37378
HAWK-7B                 
1 56193U 23054R   23347.23936983  .00003628  00000+0  19210-3 0  9994
2 56193  97.3655 238.1200 0011802  85.7615 274.4966 15.15974889 37376
HAWK-7C                 
1 56200U 23054Y   23346.71113571  .00003903  00000+0  20653-3 0  9994
2 56200  97.3822 237.9594 0010830  83.5875 276.6591 15.15969758 37296
